{
  "type": "FeatureCollection",
  "features": [
    {
      "type": "Feature",
      "properties": {
        "norad_id": 59600,
        "name": "GSAT0227 (GALILEO 30)",
        "group": "galileo",
        "lat": 49.72227891341434,
        "lon": -129.6418098776406,
        "alt_km": 23207.869567686175,
        "timestamp": "2025-12-23T05:02:12.294003+00:00",
        "meta_object_name": "GSAT0227 (GALILEO 30)",
        "meta_object_id": "2024-079C",
        "meta_epoch": "2025-12-21T20:31:35.455872",
        "meta_mean_motion": 1.70474868,
        "meta_eccentricity": 0.00028355,
        "meta_inclination": 55.0019,
        "meta_ra_of_asc_node": 106.0394,
        "meta_arg_of_pericenter": 117.3615,
        "meta_mean_anomaly": 242.6419,
        "meta_ephemeris_type": 0,
        "meta_classification_type": "U",
        "meta_norad_cat_id": 59600,
        "meta_element_set_no": 999,
        "meta_rev_at_epoch": 1034,
        "meta_bstar": 0,
        "meta_mean_motion_dot": 4e-08,
        "meta_mean_motion_ddot": 0,
        "tle_line1": "1 59600U 24079C   25355.85527148  .00000004  00000+0  00000+0 0  9994",
        "tle_line2": "2 59600  55.0019 106.0394 0002835 117.3615 242.6419  1.70474868 10348"
      },
      "geometry": {
        "type": "Point",
        "coordinates": [
          -129.6418098776406,
          49.72227891341434
        ]
      }
    },
    {
      "type": "Feature",
      "properties": {
        "norad_id": 61182,
        "name": "GSAT0232 (GALILEO 32)",
        "group": "galileo",
        "lat": -41.793431642624164,
        "lon": -172.2020825544758,
        "alt_km": 23228.276841717863,
        "timestamp": "2025-12-23T05:02:12.294015+00:00",
        "meta_object_name": "GSAT0232 (GALILEO 32)",
        "meta_object_id": "2024-167A",
        "meta_epoch": "2025-12-22T11:14:58.318656",
        "meta_mean_motion": 1.70473576,
        "meta_eccentricity": 0.00018839,
        "meta_inclination": 55.2381,
        "meta_ra_of_asc_node": 226.1639,
        "meta_arg_of_pericenter": 204.0949,
        "meta_mean_anomaly": 6.8996,
        "meta_ephemeris_type": 0,
        "meta_classification_type": "U",
        "meta_norad_cat_id": 61182,
        "meta_element_set_no": 999,
        "meta_rev_at_epoch": 786,
        "meta_bstar": 0,
        "meta_mean_motion_dot": 7.4e-07,
        "meta_mean_motion_ddot": 0,
        "tle_line1": "1 61182U 24167A   25356.46873054  .00000074  00000+0  00000+0 0  9995",
        "tle_line2": "2 61182  55.2381 226.1639 0001883 204.0949   6.8996  1.70473576  7860"
      },
      "geometry": {
        "type": "Point",
        "coordinates": [
          -172.2020825544758,
          -41.793431642624164
        ]
      }
    },
    {
      "type": "Feature",
      "properties": {
        "norad_id": 61183,
        "name": "GSAT0226 (GALILEO 31)",
        "group": "galileo",
        "lat": 44.40032918775427,
        "lon": -90.99547803399366,
        "alt_km": 23214.62594616354,
        "timestamp": "2025-12-23T05:02:12.294026+00:00",
        "meta_object_name": "GSAT0226 (GALILEO 31)",
        "meta_object_id": "2024-167B",
        "meta_epoch": "2025-12-22T05:43:25.937760",
        "meta_mean_motion": 1.70473707,
        "meta_eccentricity": 0.00011776,
        "meta_inclination": 55.2367,
        "meta_ra_of_asc_node": 226.1757,
        "meta_arg_of_pericenter": 107.8451,
        "meta_mean_anomaly": 74.5096,
        "meta_ephemeris_type": 0,
        "meta_classification_type": "U",
        "meta_norad_cat_id": 61183,
        "meta_element_set_no": 999,
        "meta_rev_at_epoch": 783,
        "meta_bstar": 0,
        "meta_mean_motion_dot": 7.4e-07,
        "meta_mean_motion_ddot": 0,
        "tle_line1": "1 61183U 24167B   25356.23849465  .00000074  00000+0  00000+0 0  9990",
        "tle_line2": "2 61183  55.2367 226.1757 0001177 107.8451  74.5096  1.70473707  7836"
      },
      "geometry": {
        "type": "Point",
        "coordinates": [
          -90.99547803399366,
          44.40032918775427
        ]
      }
    },
    {
      "type": "Feature",
      "properties": {
        "norad_id": 67160,
        "name": "GALILEO A",
        "group": "galileo",
        "lat": -54.211751920897065,
        "lon": 20.691850618306574,
        "alt_km": 22929.404053362097,
        "timestamp": "2025-12-23T05:02:12.294038+00:00",
        "meta_object_name": "GALILEO A",
        "meta_object_id": "2025-302A",
        "meta_epoch": "2025-12-18T03:30:19.486368",
        "meta_mean_motion": 1.72906186,
        "meta_eccentricity": 0.00084238,
        "meta_inclination": 54.2406,
        "meta_ra_of_asc_node": 107.2544,
        "meta_arg_of_pericenter": 237.6458,
        "meta_mean_anomaly": 122.2317,
        "meta_ephemeris_type": 0,
        "meta_classification_type": "U",
        "meta_norad_cat_id": 67160,
        "meta_element_set_no": 999,
        "meta_rev_at_epoch": 2,
        "meta_bstar": 0,
        "meta_mean_motion_dot": -7e-08,
        "meta_mean_motion_ddot": 0,
        "tle_line1": "1 67160U 25302A   25352.14605887 -.00000007  00000+0  00000+0 0  9994",
        "tle_line2": "2 67160  54.2406 107.2544 0008423 237.6458 122.2317  1.72906186    28"
      },
      "geometry": {
        "type": "Point",
        "coordinates": [
          20.691850618306574,
          -54.211751920897065
        ]
      }
    },
    {
      "type": "Feature",
      "properties": {
        "norad_id": 67161,
        "name": "GALILEO B",
        "group": "galileo",
        "lat": -54.10571725756247,
        "lon": 22.991695657665637,
        "alt_km": 22929.559063753273,
        "timestamp": "2025-12-23T05:02:12.294049+00:00",
        "meta_object_name": "GALILEO B",
        "meta_object_id": "2025-302B",
        "meta_epoch": "2025-12-19T07:14:53.290752",
        "meta_mean_motion": 1.72972192,
        "meta_eccentricity": 0.00045866,
        "meta_inclination": 54.2272,
        "meta_ra_of_asc_node": 107.1916,
        "meta_arg_of_pericenter": 255.0301,
        "meta_mean_anomaly": 104.8802,
        "meta_ephemeris_type": 0,
        "meta_classification_type": "U",
        "meta_norad_cat_id": 67161,
        "meta_element_set_no": 999,
        "meta_rev_at_epoch": 5,
        "meta_bstar": 0,
        "meta_mean_motion_dot": -5e-08,
        "meta_mean_motion_ddot": 0,
        "tle_line1": "1 67161U 25302B   25353.30200568 -.00000005  00000+0  00000+0 0  9999",
        "tle_line2": "2 67161  54.2272 107.1916 0004586 255.0301 104.8802  1.72972192    57"
      },
      "geometry": {
        "type": "Point",
        "coordinates": [
          22.991695657665637,
          -54.10571725756247
        ]
      }
    }
  ]
}